start=new Date('2022-01-06T00:00:00.000Z').valueOf();
sats=[{"DECAY_DATE":null,"TLE_LINE2":"2 49449  53.2173 228.8605 0001792  29.7447  14.1352 15.68463085  3696","GP_ID":"193287089","SEMIMAJOR_AXIS":"6741.434","MEAN_MOTION_DDOT":"0.0000000000000","TLE_LINE1":"1 49449U 21104AT  22005.91667824 -.00663386  00000-0 -62356-2 0  9998","ELEMENT_SET_NO":"999","ECCENTRICITY":"0.00017920","FILE":"3265018","OBJECT_TYPE":"PAYLOAD","EPOCH":"2022-01-05T22:00:00.999936","MEAN_ANOMALY":"14.1352","NORAD_CAT_ID":"49449","TIME_SYSTEM":"UTC","CLASSIFICATION_TYPE":"U","EPHEMERIS_TYPE":"0","PERIOD":"91.810","COUNTRY_CODE":"US","BSTAR":"-0.00623560000000","REF_FRAME":"TEME","CENTER_NAME":"EARTH","RA_OF_ASC_NODE":"228.8605","PERIAPSIS":"362.091","INCLINATION":"53.2173","RCS_SIZE":"LARGE","SITE":"AFETR","APOAPSIS":"364.507","ARG_OF_PERICENTER":"29.7447","MEAN_MOTION":"15.68463085","REV_AT_EPOCH":"369","MEAN_MOTION_DOT":"-0.00663386","MEAN_ELEMENT_THEORY":"SGP4","LAUNCH_DATE":"2021-11-13","OBJECT_NAME":"STARLINK-3137","OBJECT_ID":"2021-104AT"},{"DECAY_DATE":null,"TLE_LINE2":"2 49450  53.2173 228.8631 0001882  26.8203  12.3062 15.68232718  3690","MEAN_MOTION_DDOT":"0.0000000000000","GP_ID":"193287339","SEMIMAJOR_AXIS":"6742.094","TLE_LINE1":"1 49450U 21104AU  22005.91667824 -.00663240  00000-0 -62935-2 0  9992","ELEMENT_SET_NO":"999","ECCENTRICITY":"0.00018820","FILE":"3265018","EPOCH":"2022-01-05T22:00:00.999936","OBJECT_TYPE":"PAYLOAD","MEAN_ANOMALY":"12.3062","NORAD_CAT_ID":"49450","TIME_SYSTEM":"UTC","CLASSIFICATION_TYPE":"U","EPHEMERIS_TYPE":"0","PERIOD":"91.823","COUNTRY_CODE":"US","BSTAR":"-0.00629350000000","REF_FRAME":"TEME","CENTER_NAME":"EARTH","RA_OF_ASC_NODE":"228.8631","PERIAPSIS":"362.691","INCLINATION":"53.2173","RCS_SIZE":"LARGE","APOAPSIS":"365.228","SITE":"AFETR","ARG_OF_PERICENTER":"26.8203","MEAN_MOTION":"15.68232718","REV_AT_EPOCH":"369","MEAN_MOTION_DOT":"-0.00663240","MEAN_ELEMENT_THEORY":"SGP4","LAUNCH_DATE":"2021-11-13","OBJECT_NAME":"STARLINK-3127","OBJECT_ID":"2021-104AU"},{"SITE":"AFETR","APOAPSIS":"364.063","ARG_OF_PERICENTER":"34.8309","MEAN_MOTION":"15.68578255","RA_OF_ASC_NODE":"228.8589","PERIAPSIS":"361.876","INCLINATION":"53.2173","RCS_SIZE":"LARGE","REF_FRAME":"TEME","CENTER_NAME":"EARTH","BSTAR":"-0.00620660000000","OBJECT_NAME":"STARLINK-3125","OBJECT_ID":"2021-104AV","LAUNCH_DATE":"2021-11-13","MEAN_ELEMENT_THEORY":"SGP4","REV_AT_EPOCH":"369","MEAN_MOTION_DOT":"-0.00663413","ECCENTRICITY":"0.00016220","FILE":"3265018","OBJECT_TYPE":"PAYLOAD","EPOCH":"2022-01-05T22:00:00.999936","ELEMENT_SET_NO":"999","TLE_LINE1":"1 49451U 21104AV  22005.91667824 -.00663413  00000-0 -62066-2 0  9990","DECAY_DATE":null,"TLE_LINE2":"2 49451  53.2173 228.8589 0001622  34.8309  11.3747 15.68578255  3699","SEMIMAJOR_AXIS":"6741.104","GP_ID":"193287588","MEAN_MOTION_DDOT":"0.0000000000000","EPHEMERIS_TYPE":"0","PERIOD":"91.803","COUNTRY_CODE":"US","CLASSIFICATION_TYPE":"U","MEAN_ANOMALY":"11.3747","NORAD_CAT_ID":"49451","TIME_SYSTEM":"UTC"},{"LAUNCH_DATE":"2021-11-13","OBJECT_ID":"2021-104AW","OBJECT_NAME":"STARLINK-3150","MEAN_MOTION_DOT":"-0.00662736","REV_AT_EPOCH":"369","MEAN_ELEMENT_THEORY":"SGP4","INCLINATION":"53.2172","RA_OF_ASC_NODE":"228.8266","PERIAPSIS":"360.819","RCS_SIZE":"LARGE","SITE":"AFETR","APOAPSIS":"363.284","MEAN_MOTION":"15.68898689","ARG_OF_PERICENTER":"29.4530","BSTAR":"-0.00611760000000","REF_FRAME":"TEME","CENTER_NAME":"EARTH","CLASSIFICATION_TYPE":"U","EPHEMERIS_TYPE":"0","COUNTRY_CODE":"US","PERIOD":"91.784","NORAD_CAT_ID":"49452","MEAN_ANOMALY":"42.1413","TIME_SYSTEM":"UTC","ELEMENT_SET_NO":"999","FILE":"3265018","ECCENTRICITY":"0.00018290","OBJECT_TYPE":"PAYLOAD","EPOCH":"2022-01-05T22:00:00.999936","TLE_LINE2":"2 49452  53.2172 228.8266 0001829  29.4530  42.1413 15.68898689  3694","DECAY_DATE":null,"SEMIMAJOR_AXIS":"6740.186","GP_ID":"193287807","MEAN_MOTION_DDOT":"0.0000000000000","TLE_LINE1":"1 49452U 21104AW  22005.91667824 -.00662736  00000-0 -61176-2 0  9999"},{"CLASSIFICATION_TYPE":"U","COUNTRY_CODE":"US","PERIOD":"91.790","EPHEMERIS_TYPE":"0","TIME_SYSTEM":"UTC","NORAD_CAT_ID":"49453","MEAN_ANOMALY":"23.4309","ELEMENT_SET_NO":"999","OBJECT_TYPE":"PAYLOAD","EPOCH":"2022-01-05T22:00:00.999936","FILE":"3265018","ECCENTRICITY":"0.00018330","MEAN_MOTION_DDOT":"0.0000000000000","GP_ID":"193286590","SEMIMAJOR_AXIS":"6740.461","TLE_LINE2":"2 49453  53.2173 228.8538 0001833  28.1964  23.4309 15.68802721  3698","DECAY_DATE":null,"TLE_LINE1":"1 49453U 21104AX  22005.91667824 -.00663167  00000-0 -61463-2 0  9998","LAUNCH_DATE":"2021-11-13","OBJECT_ID":"2021-104AX","OBJECT_NAME":"STARLINK-3129","MEAN_MOTION_DOT":"-0.00663167","REV_AT_EPOCH":"369","MEAN_ELEMENT_THEORY":"SGP4","RCS_SIZE":"LARGE","INCLINATION":"53.2173","PERIAPSIS":"361.091","RA_OF_ASC_NODE":"228.8538","MEAN_MOTION":"15.68802721","ARG_OF_PERICENTER":"28.1964","APOAPSIS":"363.562","SITE":"AFETR","BSTAR":"-0.00614630000000","CENTER_NAME":"EARTH","REF_FRAME":"TEME"},{"CLASSIFICATION_TYPE":"U","COUNTRY_CODE":"US","PERIOD":"91.796","EPHEMERIS_TYPE":"0","TIME_SYSTEM":"UTC","NORAD_CAT_ID":"49454","MEAN_ANOMALY":"14.0956","ELEMENT_SET_NO":"999","OBJECT_TYPE":"PAYLOAD","EPOCH":"2022-01-05T22:00:00.999936","FILE":"3265018","ECCENTRICITY":"0.00016270","GP_ID":"193286840","MEAN_MOTION_DDOT":"0.0000000000000","SEMIMAJOR_AXIS":"6740.775","TLE_LINE2":"2 49454  53.2173 228.8568 0001627  34.4015  14.0956 15.68693349  3698","DECAY_DATE":null,"TLE_LINE1":"1 49454U 21104AY  22005.91667824 -.00663354  00000-0 -61765-2 0  9992","LAUNCH_DATE":"2021-11-13","OBJECT_ID":"2021-104AY","OBJECT_NAME":"STARLINK-3160","MEAN_MOTION_DOT":"-0.00663354","REV_AT_EPOCH":"369","MEAN_ELEMENT_THEORY":"SGP4","RCS_SIZE":"LARGE","INCLINATION":"53.2173","RA_OF_ASC_NODE":"228.8568","PERIAPSIS":"361.543","MEAN_MOTION":"15.68693349","ARG_OF_PERICENTER":"34.4015","SITE":"AFETR","APOAPSIS":"363.736","BSTAR":"-0.00617650000000","CENTER_NAME":"EARTH","REF_FRAME":"TEME"},{"ECCENTRICITY":"0.00019250","FILE":"3265018","EPOCH":"2022-01-05T22:00:00.999936","OBJECT_TYPE":"PAYLOAD","ELEMENT_SET_NO":"999","TLE_LINE1":"1 49455U 21104AZ  22005.91667824 -.00663092  00000-0 -60579-2 0  9994","DECAY_DATE":null,"TLE_LINE2":"2 49455  53.2173 228.8481 0001925  26.1993  32.0012 15.69148075  3692","GP_ID":"193288088","MEAN_MOTION_DDOT":"0.0000000000000","SEMIMAJOR_AXIS":"6739.472","EPHEMERIS_TYPE":"0","PERIOD":"91.770","COUNTRY_CODE":"US","CLASSIFICATION_TYPE":"U","MEAN_ANOMALY":"32.0012","NORAD_CAT_ID":"49455","TIME_SYSTEM":"UTC","APOAPSIS":"362.635","SITE":"AFETR","ARG_OF_PERICENTER":"26.1993","MEAN_MOTION":"15.69148075","PERIAPSIS":"360.040","RA_OF_ASC_NODE":"228.8481","INCLINATION":"53.2173","RCS_SIZE":"LARGE","REF_FRAME":"TEME","CENTER_NAME":"EARTH","BSTAR":"-0.00605790000000","OBJECT_NAME":"STARLINK-3145","OBJECT_ID":"2021-104AZ","LAUNCH_DATE":"2021-11-13","MEAN_ELEMENT_THEORY":"SGP4","REV_AT_EPOCH":"369","MEAN_MOTION_DOT":"-0.00663092"},{"MEAN_ELEMENT_THEORY":"SGP4","MEAN_MOTION_DOT":"-0.00548362","REV_AT_EPOCH":"366","OBJECT_ID":"2021-104BA","OBJECT_NAME":"STARLINK-3124","LAUNCH_DATE":"2021-11-13","CENTER_NAME":"EARTH","REF_FRAME":"TEME","BSTAR":"-0.00500570000000","MEAN_MOTION":"15.68835654","ARG_OF_PERICENTER":"45.8568","APOAPSIS":"363.234","SITE":"AFETR","RCS_SIZE":"LARGE","INCLINATION":"53.2170","PERIAPSIS":"361.230","RA_OF_ASC_NODE":"228.8511","TIME_SYSTEM":"UTC","NORAD_CAT_ID":"49456","MEAN_ANOMALY":"8.0365","COUNTRY_CODE":"US","PERIOD":"91.788","EPHEMERIS_TYPE":"0","CLASSIFICATION_TYPE":"U","TLE_LINE1":"1 49456U 21104BA  22005.91667824 -.00548362  00000-0 -50057-2 0  9997","SEMIMAJOR_AXIS":"6740.367","GP_ID":"193288307","MEAN_MOTION_DDOT":"0.0000000000000","TLE_LINE2":"2 49456  53.2170 228.8511 0001486  45.8568   8.0365 15.68835654  3668","DECAY_DATE":null,"OBJECT_TYPE":"PAYLOAD","EPOCH":"2022-01-05T22:00:00.999936","FILE":"3265018","ECCENTRICITY":"0.00014860","ELEMENT_SET_NO":"999"},{"TIME_SYSTEM":"UTC","NORAD_CAT_ID":"49457","MEAN_ANOMALY":"34.8837","COUNTRY_CODE":"US","PERIOD":"91.763","EPHEMERIS_TYPE":"0","CLASSIFICATION_TYPE":"U","TLE_LINE1":"1 49457U 21104BB  22005.91667824 -.00663159  00000-0 -60295-2 0  9995","MEAN_MOTION_DDOT":"0.0000000000000","GP_ID":"193287090","SEMIMAJOR_AXIS":"6739.143","TLE_LINE2":"2 49457  53.2173 228.8462 0001980  25.4397  34.8837 15.69263243  3694","DECAY_DATE":null,"OBJECT_TYPE":"PAYLOAD","EPOCH":"2022-01-05T22:00:00.999936","ECCENTRICITY":"0.00019800","FILE":"3265018","ELEMENT_SET_NO":"999","MEAN_ELEMENT_THEORY":"SGP4","MEAN_MOTION_DOT":"-0.00663159","REV_AT_EPOCH":"369","OBJECT_ID":"2021-104BB","OBJECT_NAME":"STARLINK-3132","LAUNCH_DATE":"2021-11-13","CENTER_NAME":"EARTH","REF_FRAME":"TEME","BSTAR":"-0.00602950000000","MEAN_MOTION":"15.69263243","ARG_OF_PERICENTER":"25.4397","SITE":"AFETR","APOAPSIS":"362.342","RCS_SIZE":"LARGE","INCLINATION":"53.2173","RA_OF_ASC_NODE":"228.8462","PERIAPSIS":"359.673"},{"LAUNCH_DATE":"2021-11-13","OBJECT_NAME":"STARLINK-3156","OBJECT_ID":"2021-104BC","REV_AT_EPOCH":"369","MEAN_MOTION_DOT":"-0.00663102","MEAN_ELEMENT_THEORY":"SGP4","RCS_SIZE":"LARGE","PERIAPSIS":"360.354","RA_OF_ASC_NODE":"228.8496","INCLINATION":"53.2173","ARG_OF_PERICENTER":"25.5957","MEAN_MOTION":"15.69032947","APOAPSIS":"362.980","SITE":"AFETR","BSTAR":"-0.00608700000000","CENTER_NAME":"EARTH","REF_FRAME":"TEME","CLASSIFICATION_TYPE":"U","PERIOD":"91.776","COUNTRY_CODE":"US","EPHEMERIS_TYPE":"0","TIME_SYSTEM":"UTC","MEAN_ANOMALY":"30.4478","NORAD_CAT_ID":"49458","ELEMENT_SET_NO":"999","EPOCH":"2022-01-05T22:00:00.999936","OBJECT_TYPE":"PAYLOAD","ECCENTRICITY":"0.00019480","FILE":"3265018","SEMIMAJOR_AXIS":"6739.802","GP_ID":"193287340","MEAN_MOTION_DDOT":"0.0000000000000","DECAY_DATE":null,"TLE_LINE2":"2 49458  53.2173 228.8496 0001948  25.5957  30.4478 15.69032947  3697","TLE_LINE1":"1 49458U 21104BC  22005.91667824 -.00663102  00000-0 -60870-2 0  9993"}];
